GLOBALSTAR M084         
1 38040U 11080A   25205.51492747 -.00000080  00000+0  13542-3 0  9994
2 38040  52.0017 294.8378 0000908 118.9075 254.2047 12.62267345627389
GLOBALSTAR M080         
1 38041U 11080B   25205.56571302 -.00000071  00000+0  18195-3 0  9994
2 38041  52.0069 296.2887 0000468 170.9396 202.3243 12.62267686627518
GLOBALSTAR M082         
1 38042U 11080C   25205.42265549 -.00000067  00000+0  20308-3 0  9997
2 38042  52.0060 252.1880 0000298 217.7546 156.0709 12.62267526628204
GLOBALSTAR M092         
1 38043U 11080D   25205.56936703 -.00000093  00000+0  62696-4 0  9996
2 38043  52.0107 342.1189 0000784 105.2372 335.2403 12.62265125626671
GLOBALSTAR M090         
1 38044U 11080E   25205.37059844 -.00000071  00000+0  18411-3 0  9999
2 38044  52.0104 246.1941 0000141 116.1419 261.9772 12.62261240628319
GLOBALSTAR M086         
1 38045U 11080F   25205.58740828 -.00000061  00000+0  23630-3 0  9990
2 38045  51.9878 245.9965 0001177  60.8544 104.3137 12.62274942628287
GLOBALSTAR M097         
1 39072U 13005A   25205.57781250 -.00000133  00000+0 -16538-3 0  9993
2 39072  52.0030 160.6088 0000459  27.4244 332.6647 12.62265621575532
GLOBALSTAR M093         
1 39073U 13005B   25205.55144869 -.00000120  00000+0 -88078-4 0  9996
2 39073  51.9797 153.9325 0000508  18.1070 341.9814 12.62266224575482
